start=new Date('2022-05-13T00:00:00.000Z').valueOf();
sats=[{"MEAN_ELEMENT_THEORY":"SGP4","RCS_SIZE":"LARGE","OBJECT_ID":"2021-040AV","INCLINATION":"53.0545","COUNTRY_CODE":"US","MEAN_MOTION":"15.06400987","ARG_OF_PERICENTER":"65.4560","EPHEMERIS_TYPE":"0","PERIAPSIS":"546.116","DECAY_DATE":null,"MEAN_MOTION_DDOT":"0.0000000000000","MEAN_MOTION_DOT":"0.00001116","CENTER_NAME":"EARTH","TLE_LINE2":"2 48471  53.0545 342.3108 0001580  65.4560 294.6594 15.06400987 55952","EPOCH":"2022-05-12T20:12:47.861568","REV_AT_EPOCH":"5595","FILE":"3442534","REF_FRAME":"TEME","LAUNCH_DATE":"2021-05-09","PERIOD":"95.592","CLASSIFICATION_TYPE":"U","ECCENTRICITY":"0.00015800","MEAN_ANOMALY":"294.6594","TIME_SYSTEM":"UTC","TLE_LINE1":"1 48471U 21040AV  22132.84222062  .00001116  00000-0  93802-4 0  9992","BSTAR":"0.00009380200000","SEMIMAJOR_AXIS":"6925.346","GP_ID":"203391428","OBJECT_TYPE":"PAYLOAD","OBJECT_NAME":"STARLINK-2684","APOAPSIS":"548.305","NORAD_CAT_ID":"48471","SITE":"AFETR","ELEMENT_SET_NO":"999","RA_OF_ASC_NODE":"342.3108"},{"EPOCH":"2022-05-12T14:59:39.219936","REV_AT_EPOCH":"5591","TLE_LINE2":"2 48472  53.0564 343.2888 0001484  50.5995 309.5126 15.06391857 55917","LAUNCH_DATE":"2021-05-09","FILE":"3442534","REF_FRAME":"TEME","MEAN_MOTION":"15.06391857","ARG_OF_PERICENTER":"50.5995","EPHEMERIS_TYPE":"0","MEAN_ELEMENT_THEORY":"SGP4","RCS_SIZE":"LARGE","OBJECT_ID":"2021-040AW","INCLINATION":"53.0564","COUNTRY_CODE":"US","MEAN_MOTION_DDOT":"0.0000000000000","CENTER_NAME":"EARTH","MEAN_MOTION_DOT":"0.00001599","PERIAPSIS":"546.211","DECAY_DATE":null,"OBJECT_NAME":"STARLINK-2722","OBJECT_TYPE":"PAYLOAD","GP_ID":"203391679","SEMIMAJOR_AXIS":"6925.374","ELEMENT_SET_NO":"999","RA_OF_ASC_NODE":"343.2888","APOAPSIS":"548.266","NORAD_CAT_ID":"48472","SITE":"AFETR","TIME_SYSTEM":"UTC","MEAN_ANOMALY":"309.5126","PERIOD":"95.593","CLASSIFICATION_TYPE":"U","ECCENTRICITY":"0.00014840","BSTAR":"0.00012624000000","TLE_LINE1":"1 48472U 21040AW  22132.62475949  .00001599  00000-0  12624-3 0  9990"},{"MEAN_MOTION_DDOT":"0.0000000000000","MEAN_MOTION_DOT":"-0.00000022","CENTER_NAME":"EARTH","PERIAPSIS":"545.919","DECAY_DATE":null,"MEAN_MOTION":"15.06395536","EPHEMERIS_TYPE":"0","ARG_OF_PERICENTER":"44.4750","RCS_SIZE":"MEDIUM","MEAN_ELEMENT_THEORY":"SGP4","COUNTRY_CODE":"US","OBJECT_ID":"2021-040AX","INCLINATION":"53.0550","LAUNCH_DATE":"2021-05-09","FILE":"3442533","REF_FRAME":"TEME","EPOCH":"2022-05-12T01:32:52.245312","REV_AT_EPOCH":"5583","TLE_LINE2":"2 48473  53.0550 345.8025 0001889  44.4750 315.6390 15.06395536 55834","BSTAR":"0.00001741100000","TLE_LINE1":"1 48473U 21040AX  22132.06449358 -.00000022  00000-0  17411-4 0  9995","MEAN_ANOMALY":"315.6390","TIME_SYSTEM":"UTC","ECCENTRICITY":"0.00018890","CLASSIFICATION_TYPE":"U","PERIOD":"95.592","RA_OF_ASC_NODE":"345.8025","ELEMENT_SET_NO":"999","NORAD_CAT_ID":"48473","APOAPSIS":"548.535","SITE":"AFETR","OBJECT_TYPE":"PAYLOAD","OBJECT_NAME":"STARLINK-2658","GP_ID":"203365767","SEMIMAJOR_AXIS":"6925.362"},{"PERIOD":"95.592","ECCENTRICITY":"0.00015550","CLASSIFICATION_TYPE":"U","TIME_SYSTEM":"UTC","MEAN_ANOMALY":"275.6522","TLE_LINE1":"1 48474U 21040AY  22132.29670804  .00000999  00000-0  85966-4 0  9995","BSTAR":"0.00008596600000","GP_ID":"203366519","SEMIMAJOR_AXIS":"6925.335","OBJECT_NAME":"STARLINK-2697","OBJECT_TYPE":"PAYLOAD","SITE":"AFETR","APOAPSIS":"548.277","NORAD_CAT_ID":"48474","ELEMENT_SET_NO":"999","RA_OF_ASC_NODE":"344.7592","OBJECT_ID":"2021-040AY","INCLINATION":"53.0569","COUNTRY_CODE":"US","MEAN_ELEMENT_THEORY":"SGP4","RCS_SIZE":"LARGE","ARG_OF_PERICENTER":"84.4645","EPHEMERIS_TYPE":"0","MEAN_MOTION":"15.06404430","DECAY_DATE":null,"PERIAPSIS":"546.123","MEAN_MOTION_DOT":"0.00000999","CENTER_NAME":"EARTH","MEAN_MOTION_DDOT":"0.0000000000000","TLE_LINE2":"2 48474  53.0569 344.7592 0001555  84.4645 275.6522 15.06404430 55868","REV_AT_EPOCH":"5586","EPOCH":"2022-05-12T07:07:15.574656","REF_FRAME":"TEME","FILE":"3442533","LAUNCH_DATE":"2021-05-09"},{"OBJECT_TYPE":"PAYLOAD","OBJECT_NAME":"STARLINK-2619","GP_ID":"203390929","SEMIMAJOR_AXIS":"6925.371","RA_OF_ASC_NODE":"342.2198","ELEMENT_SET_NO":"999","NORAD_CAT_ID":"48475","APOAPSIS":"548.388","SITE":"AFETR","TIME_SYSTEM":"UTC","MEAN_ANOMALY":"295.7959","CLASSIFICATION_TYPE":"U","ECCENTRICITY":"0.00016640","PERIOD":"95.593","BSTAR":"0.00037153000000","TLE_LINE1":"1 48475U 21040AZ  22132.86434248  .00005256  00000-0  37153-3 0  9994","EPOCH":"2022-05-12T20:44:39.190272","REV_AT_EPOCH":"5595","TLE_LINE2":"2 48475  53.0555 342.2198 0001664  64.3202 295.7959 15.06392649 55951","LAUNCH_DATE":"2021-05-09","FILE":"3442534","REF_FRAME":"TEME","MEAN_MOTION":"15.06392649","EPHEMERIS_TYPE":"0","ARG_OF_PERICENTER":"64.3202","RCS_SIZE":"LARGE","MEAN_ELEMENT_THEORY":"SGP4","COUNTRY_CODE":"US","OBJECT_ID":"2021-040AZ","INCLINATION":"53.0555","MEAN_MOTION_DDOT":"0.0000000000000","CENTER_NAME":"EARTH","MEAN_MOTION_DOT":"0.00005256","PERIAPSIS":"546.084","DECAY_DATE":null},{"COUNTRY_CODE":"US","INCLINATION":"53.0550","OBJECT_ID":"2021-040BA","RCS_SIZE":"LARGE","MEAN_ELEMENT_THEORY":"SGP4","EPHEMERIS_TYPE":"0","ARG_OF_PERICENTER":"81.3486","MEAN_MOTION":"15.06408374","DECAY_DATE":null,"PERIAPSIS":"546.239","CENTER_NAME":"EARTH","MEAN_MOTION_DOT":"0.00003524","MEAN_MOTION_DDOT":"0.0000000000000","TLE_LINE2":"2 48476  53.0550 342.4029 0001370  81.3486 278.7658 15.06408374 55948","REV_AT_EPOCH":"5594","EPOCH":"2022-05-12T19:40:57.432288","REF_FRAME":"TEME","FILE":"3442534","LAUNCH_DATE":"2021-05-09","CLASSIFICATION_TYPE":"U","ECCENTRICITY":"0.00013700","PERIOD":"95.592","MEAN_ANOMALY":"278.7658","TIME_SYSTEM":"UTC","TLE_LINE1":"1 48476U 21040BA  22132.82010917  .00003524  00000-0  25532-3 0  9998","BSTAR":"0.00025532000000","GP_ID":"203392180","SEMIMAJOR_AXIS":"6925.323","OBJECT_NAME":"STARLINK-2723","OBJECT_TYPE":"PAYLOAD","SITE":"AFETR","NORAD_CAT_ID":"48476","APOAPSIS":"548.137","RA_OF_ASC_NODE":"342.4029","ELEMENT_SET_NO":"999"},{"BSTAR":"0.00008624000000","TLE_LINE1":"1 48478U 02032DG  22132.87170760  .00001003  00000-0  86240-4 0  9992","MEAN_ANOMALY":"293.3519","TIME_SYSTEM":"UTC","PERIOD":"95.592","CLASSIFICATION_TYPE":"U","ECCENTRICITY":"0.00016030","ELEMENT_SET_NO":"999","RA_OF_ASC_NODE":"342.1898","APOAPSIS":"548.315","NORAD_CAT_ID":"48478","SITE":"AFETR","OBJECT_NAME":"STARLINK-2728","OBJECT_TYPE":"PAYLOAD","GP_ID":"203391930","SEMIMAJOR_AXIS":"6925.340","MEAN_MOTION_DDOT":"0.0000000000000","MEAN_MOTION_DOT":"0.00001003","CENTER_NAME":"EARTH","PERIAPSIS":"546.094","DECAY_DATE":null,"MEAN_MOTION":"15.06402916","ARG_OF_PERICENTER":"66.7638","EPHEMERIS_TYPE":"0","MEAN_ELEMENT_THEORY":"SGP4","RCS_SIZE":"LARGE","OBJECT_ID":"2021-040BC","INCLINATION":"53.0562","COUNTRY_CODE":"US","LAUNCH_DATE":"2021-05-09","FILE":"3442534","REF_FRAME":"TEME","EPOCH":"2022-05-12T20:55:15.536640","REV_AT_EPOCH":"5595","TLE_LINE2":"2 48478  53.0562 342.1898 0001603  66.7638 293.3519 15.06402916 55955"},{"MEAN_MOTION_DOT":"0.00001313","CENTER_NAME":"EARTH","MEAN_MOTION_DDOT":"0.0000000000000","DECAY_DATE":null,"PERIAPSIS":"546.217","ARG_OF_PERICENTER":"75.1145","EPHEMERIS_TYPE":"0","MEAN_MOTION":"15.06401036","OBJECT_ID":"2021-040BD","INCLINATION":"53.0562","COUNTRY_CODE":"US","MEAN_ELEMENT_THEORY":"SGP4","RCS_SIZE":"LARGE","LAUNCH_DATE":"2021-05-09","REF_FRAME":"TEME","FILE":"3442534","REV_AT_EPOCH":"5595","EPOCH":"2022-05-12T20:49:57.348768","TLE_LINE2":"2 48479  53.0562 342.2032 0001434  75.1145 285.0003 15.06401036 55954","BSTAR":"0.00010701000000","TLE_LINE1":"1 48479U 21040BD  22132.86802487  .00001313  00000-0  10701-3 0  9992","MEAN_ANOMALY":"285.0003","TIME_SYSTEM":"UTC","PERIOD":"95.592","CLASSIFICATION_TYPE":"U","ECCENTRICITY":"0.00014340","ELEMENT_SET_NO":"999","RA_OF_ASC_NODE":"342.2032","SITE":"AFETR","APOAPSIS":"548.203","NORAD_CAT_ID":"48479","OBJECT_TYPE":"PAYLOAD","OBJECT_NAME":"STARLINK-2755","GP_ID":"203391179","SEMIMAJOR_AXIS":"6925.345"},{"OBJECT_TYPE":"PAYLOAD","OBJECT_NAME":"STARLINK-2690","SEMIMAJOR_AXIS":"6925.350","GP_ID":"203391429","ELEMENT_SET_NO":"999","RA_OF_ASC_NODE":"352.1374","SITE":"AFETR","APOAPSIS":"548.354","NORAD_CAT_ID":"48480","MEAN_ANOMALY":"301.0742","TIME_SYSTEM":"UTC","PERIOD":"95.592","CLASSIFICATION_TYPE":"U","ECCENTRICITY":"0.00016450","BSTAR":"0.00011306000000","TLE_LINE1":"1 48480U 21040BE  22132.88184905  .00001403  00000-0  11306-3 0  9996","REV_AT_EPOCH":"5581","EPOCH":"2022-05-12T21:09:51.757920","TLE_LINE2":"2 48480  53.0574 352.1374 0001645  59.0409 301.0742 15.06399622 55817","LAUNCH_DATE":"2021-05-09","REF_FRAME":"TEME","FILE":"3442534","ARG_OF_PERICENTER":"59.0409","EPHEMERIS_TYPE":"0","MEAN_MOTION":"15.06399622","INCLINATION":"53.0574","OBJECT_ID":"2021-040BE","COUNTRY_CODE":"US","MEAN_ELEMENT_THEORY":"SGP4","RCS_SIZE":"LARGE","MEAN_MOTION_DOT":"0.00001403","CENTER_NAME":"EARTH","MEAN_MOTION_DDOT":"0.0000000000000","DECAY_DATE":null,"PERIAPSIS":"546.075"},{"PERIAPSIS":"553.710","DECAY_DATE":null,"MEAN_MOTION_DDOT":"0.0000000000000","MEAN_MOTION_DOT":"0.00001580","CENTER_NAME":"EARTH","MEAN_ELEMENT_THEORY":"SGP4","RCS_SIZE":"LARGE","OBJECT_ID":"2021-040BF","INCLINATION":"53.0544","COUNTRY_CODE":"US","MEAN_MOTION":"15.03966785","ARG_OF_PERICENTER":"54.0863","EPHEMERIS_TYPE":"0","FILE":"3442534","REF_FRAME":"TEME","LAUNCH_DATE":"2021-05-09","TLE_LINE2":"2 48481  53.0544 352.1187 0001401  54.0863 306.0254 15.03966785 55816","EPOCH":"2022-05-12T21:41:25.738368","REV_AT_EPOCH":"5581","TLE_LINE1":"1 48481U 21040BF  22132.90377012  .00001580  00000-0  13294-3 0  9997","BSTAR":"0.00013294000000","PERIOD":"95.747","ECCENTRICITY":"0.00014010","CLASSIFICATION_TYPE":"U","MEAN_ANOMALY":"306.0254","TIME_SYSTEM":"UTC","APOAPSIS":"555.652","NORAD_CAT_ID":"48481","SITE":"AFETR","ELEMENT_SET_NO":"999","RA_OF_ASC_NODE":"352.1187","GP_ID":"203391680","SEMIMAJOR_AXIS":"6932.816","OBJECT_NAME":"STARLINK-2706","OBJECT_TYPE":"PAYLOAD"}];
